{"type": "FeatureCollection", "features": [ {"type": "Feature", "properties": {"norad_id": 29930, "name": "FENGYUN 1C DEB", "group": "fengyun-1c-debris", "lat": -52.072038908998714, "lon": -123.62950000540985, "alt_km": 884.9146351665286, "timestamp": "2025-12-08T10:52:03.219968+00:00", "meta": {"OBJECT_NAME": "FENGYUN 1C DEB", "OBJECT_ID": "1999-025JC", "EPOCH": "2025-12-07T23:21:59.704416", "MEAN_MOTION": 14.20808209, "ECCENTRICITY": 0.01646461, "INCLINATION": 99.0445, "RA_OF_ASC_NODE": 224.0856, "ARG_OF_PERICENTER": 67.1119, "MEAN_ANOMALY": 311.8868, "EPHEMERIS_TYPE": 0, "CLASSIFICATION_TYPE": "U", "NORAD_CAT_ID": 29930, "ELEMENT_SET_NO": 999, "REV_AT_EPOCH": 97823, "BSTAR": 0.00035359529, "MEAN_MOTION_DOT": 8.29e-06, "MEAN_MOTION_DDOT": 0}, "tle": {"line1": "1 29930U 99025JC  25341.97360769  .00000829  00000+0  35360-3 0  9998", "line2": "2 29930  99.0445 224.0856 0164646  67.1119 311.8868 14.20808209978233"}}, "geometry": {"type": "Point", "coordinates": [-123.62950000540985, -52.072038908998714]}}, {"type": "Feature", "properties": {"norad_id": 29931, "name": "FENGYUN 1C DEB", "group": "fengyun-1c-debris", "lat": -31.33533836616518, "lon": -167.5793675475794, "alt_km": 892.9530578063968, "timestamp": "2025-12-08T10:52:03.219978+00:00", "meta": {"OBJECT_NAME": "FENGYUN 1C DEB", "OBJECT_ID": "1999-025JD", "EPOCH": "2025-12-07T23:55:13.079424", "MEAN_MOTION": 14.03888898, "ECCENTRICITY": 0.00326599, "INCLINATION": 98.8599, "RA_OF_ASC_NODE": 17.4255, "ARG_OF_PERICENTER": 106.4986, "MEAN_ANOMALY": 320.7585, "EPHEMERIS_TYPE": 0, "CLASSIFICATION_TYPE": "U", "NORAD_CAT_ID": 29931, "ELEMENT_SET_NO": 999, "REV_AT_EPOCH": 96746, "BSTAR": 0.00017243578, "MEAN_MOTION_DOT": 2.31e-06, "MEAN_MOTION_DDOT": 0}, "tle": {"line1": "1 29931U 99025JD  25341.99667916  .00000231  00000+0  17244-3 0  9993", "line2": "2 29931  98.8599  17.4255 0032659 106.4986 320.7585 14.03888898967466"}}, "geometry": {"type": "Point", "coordinates": [-167.5793675475794, -31.33533836616518]}}, {"type": "Feature", "properties": {"norad_id": 29932, "name": "FENGYUN 1C DEB", "group": "fengyun-1c-debris", "lat": 72.15920529795021, "lon": -158.56488658064526, "alt_km": 803.7555700142966, "timestamp": "2025-12-08T10:52:03.219988+00:00", "meta": {"OBJECT_NAME": "FENGYUN 1C DEB", "OBJECT_ID": "1999-025JE", "EPOCH": "2025-12-07T19:57:26.460000", "MEAN_MOTION": 14.1675442, "ECCENTRICITY": 0.00386242, "INCLINATION": 98.6342, "RA_OF_ASC_NODE": 352.6621, "ARG_OF_PERICENTER": 84.151, "MEAN_ANOMALY": 94.4816, "EPHEMERIS_TYPE": 0, "CLASSIFICATION_TYPE": "U", "NORAD_CAT_ID": 29932, "ELEMENT_SET_NO": 999, "REV_AT_EPOCH": 97514, "BSTAR": 0.00048791497, "MEAN_MOTION_DOT": 9.41e-06, "MEAN_MOTION_DDOT": 0}, "tle": {"line1": "1 29932U 99025JE  25341.83155625  .00000941  00000+0  48791-3 0  9995", "line2": "2 29932  98.6342 352.6621 0038624  84.1510  94.4816 14.16754420975148"}}, "geometry": {"type": "Point", "coordinates": [-158.56488658064526, 72.15920529795021]}}, {"type": "Feature", "properties": {"norad_id": 29933, "name": "FENGYUN 1C DEB", "group": "fengyun-1c-debris", "lat": 30.220280279411995, "lon": -89.47728028257947, "alt_km": 676.107888518527, "timestamp": "2025-12-08T10:52:03.219998+00:00", "meta": {"OBJECT_NAME": "FENGYUN 1C DEB", "OBJECT_ID": "1999-025JF", "EPOCH": "2025-12-07T20:00:28.896192", "MEAN_MOTION": 14.65609382, "ECCENTRICITY": 0.00039829, "INCLINATION": 98.7496, "RA_OF_ASC_NODE": 84.717, "ARG_OF_PERICENTER": 348.5993, "MEAN_ANOMALY": 135.8108, "EPHEMERIS_TYPE": 0, "CLASSIFICATION_TYPE": "U", "NORAD_CAT_ID": 29933, "ELEMENT_SET_NO": 999, "REV_AT_EPOCH": 98433, "BSTAR": 0.0054119525, "MEAN_MOTION_DOT": 0.0002947, "MEAN_MOTION_DDOT": 0}, "tle": {"line1": "1 29933U 99025JF  25341.83366778  .00029470  00000+0  54120-2 0  9999", "line2": "2 29933  98.7496  84.7170 0003982 348.5993 135.8108 14.65609382984338"}}, "geometry": {"type": "Point", "coordinates": [-89.47728028257947, 30.220280279411995]}}, {"type": "Feature", "properties": {"norad_id": 29934, "name": "FENGYUN 1C DEB", "group": "fengyun-1c-debris", "lat": 68.53314280659603, "lon": -127.52922315914991, "alt_km": 739.2166651241287, "timestamp": "2025-12-08T10:52:03.220009+00:00", "meta": {"OBJECT_NAME": "FENGYUN 1C DEB", "OBJECT_ID": "1999-025JG", "EPOCH": "2025-12-07T22:52:37.425216", "MEAN_MOTION": 14.63719246, "ECCENTRICITY": 0.01005839, "INCLINATION": 98.9039, "RA_OF_ASC_NODE": 28.437, "ARG_OF_PERICENTER": 267.0781, "MEAN_ANOMALY": 91.8904, "EPHEMERIS_TYPE": 0, "CLASSIFICATION_TYPE": "U", "NORAD_CAT_ID": 29934, "ELEMENT_SET_NO": 999, "REV_AT_EPOCH": 99702, "BSTAR": 0.0011721126, "MEAN_MOTION_DOT": 6.513e-05, "MEAN_MOTION_DDOT": 0}, "tle": {"line1": "1 29934U 99025JG  25341.95321094  .00006513  00000+0  11721-2 0  9998", "line2": "2 29934  98.9039  28.4370 0100583 267.0781  91.8904 14.63719246997020"}}, "geometry": {"type": "Point", "coordinates": [-127.52922315914991, 68.53314280659603]}}, {"type": "Feature", "properties": {"norad_id": 29935, "name": "FENGYUN 1C DEB", "group": "fengyun-1c-debris", "lat": -77.15665714206172, "lon": 85.64087604979595, "alt_km": 783.3668248952226, "timestamp": "2025-12-08T10:52:03.220019+00:00", "meta": {"OBJECT_NAME": "FENGYUN 1C DEB", "OBJECT_ID": "1999-025JH", "EPOCH": "2025-12-07T15:36:27.439776", "MEAN_MOTION": 14.14234385, "ECCENTRICITY": 0.01499449, "INCLINATION": 98.4621, "RA_OF_ASC_NODE": 44.115, "ARG_OF_PERICENTER": 230.8289, "MEAN_ANOMALY": 284.1516, "EPHEMERIS_TYPE": 0, "CLASSIFICATION_TYPE": "U", "NORAD_CAT_ID": 29935, "ELEMENT_SET_NO": 999, "REV_AT_EPOCH": 97470, "BSTAR": 0.00022063045, "MEAN_MOTION_DOT": 4.27e-06, "MEAN_MOTION_DDOT": 0}, "tle": {"line1": "1 29935U 99025JH  25341.65031759  .00000427  00000+0  22063-3 0  9992", "line2": "2 29935  98.4621  44.1150 0149944 230.8289 284.1516 14.14234385974707"}}, "geometry": {"type": "Point", "coordinates": [85.64087604979595, -77.15665714206172]}}, {"type": "Feature", "properties": {"norad_id": 29936, "name": "FENGYUN 1C DEB", "group": "fengyun-1c-debris", "lat": -6.804178379807862, "lon": 96.86042004828762, "alt_km": 850.4655541797265, "timestamp": "2025-12-08T10:52:03.220029+00:00", "meta": {"OBJECT_NAME": "FENGYUN 1C DEB", "OBJECT_ID": "1999-025JJ", "EPOCH": "2025-12-07T21:30:55.497024", "MEAN_MOTION": 14.35301355, "ECCENTRICITY": 0.01137397, "INCLINATION": 98.6562, "RA_OF_ASC_NODE": 95.2609, "ARG_OF_PERICENTER": 201.3887, "MEAN_ANOMALY": 158.2525, "EPHEMERIS_TYPE": 0, "CLASSIFICATION_TYPE": "U", "NORAD_CAT_ID": 29936, "ELEMENT_SET_NO": 999, "REV_AT_EPOCH": 98861, "BSTAR": 0.0003552046, "MEAN_MOTION_DOT": 1.048e-05, "MEAN_MOTION_DDOT": 0}, "tle": {"line1": "1 29936U 99025JJ  25341.89647566  .00001048  00000+0  35520-3 0  9990", "line2": "2 29936  98.6562  95.2609 0113739 201.3887 158.2525 14.35301355988611"}}, "geometry": {"type": "Point", "coordinates": [96.86042004828762, -6.804178379807862]}}, {"type": "Feature", "properties": {"norad_id": 29937, "name": "FENGYUN 1C DEB", "group": "fengyun-1c-debris", "lat": -29.51818730868123, "lon": 178.56676753182794, "alt_km": 908.129780079299, "timestamp": "2025-12-08T10:52:03.220039+00:00", "meta": {"OBJECT_NAME": "FENGYUN 1C DEB", "OBJECT_ID": "1999-025JK", "EPOCH": "2025-12-07T23:53:25.481184", "MEAN_MOTION": 14.04359833, "ECCENTRICITY": 0.00325122, "INCLINATION": 98.8032, "RA_OF_ASC_NODE": 3.157, "ARG_OF_PERICENTER": 34.6411, "MEAN_ANOMALY": 24.0356, "EPHEMERIS_TYPE": 0, "CLASSIFICATION_TYPE": "U", "NORAD_CAT_ID": 29937, "ELEMENT_SET_NO": 999, "REV_AT_EPOCH": 96869, "BSTAR": 0.00019240701, "MEAN_MOTION_DOT": 2.65e-06, "MEAN_MOTION_DDOT": 0}, "tle": {"line1": "1 29937U 99025JK  25341.99543381  .00000265  00000+0  19241-3 0  9994", "line2": "2 29937  98.8032   3.1570 0032512  34.6411  24.0356 14.04359833968698"}}, "geometry": {"type": "Point", "coordinates": [178.56676753182794, -29.51818730868123]}}, {"type": "Feature", "properties": {"norad_id": 29938, "name": "FENGYUN 1C DEB", "group": "fengyun-1c-debris", "lat": 81.0062535649911, "lon": -105.64369681188141, "alt_km": 874.3610166405388, "timestamp": "2025-12-08T10:52:03.220050+00:00", "meta": {"OBJECT_NAME": "FENGYUN 1C DEB", "OBJECT_ID": "1999-025JL", "EPOCH": "2025-12-07T22:45:55.185696", "MEAN_MOTION": 14.07454029, "ECCENTRICITY": 0.00330584, "INCLINATION": 98.8019, "RA_OF_ASC_NODE": 332.086, "ARG_OF_PERICENTER": 324.503, "MEAN_ANOMALY": 89.7796, "EPHEMERIS_TYPE": 0, "CLASSIFICATION_TYPE": "U", "NORAD_CAT_ID": 29938, "ELEMENT_SET_NO": 999, "REV_AT_EPOCH": 96989, "BSTAR": 0.00016862147, "MEAN_MOTION_DOT": 2.42e-06, "MEAN_MOTION_DDOT": 0}, "tle": {"line1": "1 29938U 99025JL  25341.94855539  .00000242  00000+0  16862-3 0  9992", "line2": "2 29938  98.8019 332.0860 0033058 324.5030  89.7796 14.07454029969899"}}, "geometry": {"type": "Point", "coordinates": [-105.64369681188141, 81.0062535649911]}}, {"type": "Feature", "properties": {"norad_id": 29939, "name": "FENGYUN 1C DEB", "group": "fengyun-1c-debris", "lat": 6.580979946916309, "lon": -18.85044177951429, "alt_km": 893.1318875174065, "timestamp": "2025-12-08T10:52:03.220060+00:00", "meta": {"OBJECT_NAME": "FENGYUN 1C DEB", "OBJECT_ID": "1999-025JM", "EPOCH": "2025-12-07T23:11:11.943744", "MEAN_MOTION": 14.12083189, "ECCENTRICITY": 0.00667556, "INCLINATION": 98.7096, "RA_OF_ASC_NODE": 341.6901, "ARG_OF_PERICENTER": 152.016, "MEAN_ANOMALY": 262.4311, "EPHEMERIS_TYPE": 0, "CLASSIFICATION_TYPE": "U", "NORAD_CAT_ID": 29939, "ELEMENT_SET_NO": 999, "REV_AT_EPOCH": 97393, "BSTAR": 7.1116051e-05, "MEAN_MOTION_DOT": 9.1e-07, "MEAN_MOTION_DDOT": 0}, "tle": {"line1": "1 29939U 99025JM  25341.96611046  .00000091  00000+0  71116-4 0  9994", "line2": "2 29939  98.7096 341.6901 0066755 152.0160 262.4311 14.12083189973938"}}, "geometry": {"type": "Point", "coordinates": [-18.85044177951429, 6.580979946916309]}}]}